FLOCK 4BE-30            
1 60499U 24149AH  26129.95660725  .00068871  00000+0  12954-2 0  9990
2 60499  97.3777 214.4587 0002401 161.6601 198.4736 15.48320623 95847
NUSAT-49 (KLARA DAN VO*)
1 60500U 24149AJ  26129.74608628  .00006477  00000+0  22418-3 0  9995
2 60500  97.3773 211.2938 0004107  80.4598 279.7107 15.30207384 96259
FLOCK 4BE-11            
1 60501U 24149AK  26129.96815828  .00012646  00000+0  30129-3 0  9995
2 60501  97.3693 213.7154 0004586  70.3956 289.7786 15.41718127 96466
YAM-7                   
1 60504U 24149AN  26129.77025414  .00005641  00000+0  18919-3 0  9991
2 60504  97.3780 210.1922 0004935  80.3515 279.8284 15.31287528 96176
FLOCK 4BE-24            
1 60505U 24149AP  26129.95485347  .00013630  00000+0  32512-3 0  9999
2 60505  97.3711 213.9488 0004714  78.4726 281.7050 15.41663603 96475
LUR-1                   
1 60506U 24149AQ  26129.78338339  .00005107  00000+0  18061-3 0  9992
2 60506  97.3737 208.9045 0005681  86.7400 273.4491 15.29601987 96102
TANAGER-1               
1 60507U 24149AR  26129.81114216  .00009656  00000+0  20971-3 0  9999
2 60507  97.3250 223.9203 0006456  83.5467 276.6517 15.44550141 97113
EAGLEEYE                
1 60508U 24149AS  26129.86859098  .00050432  00000+0  51586-3 0  9993
2 60508  97.3720 221.2887 0002047  60.9675 299.1790 15.64873946 96932
FLOCK 4BE-29            
1 60509U 24149AT  26129.79989613  .00011748  00000+0  26932-3 0  9997
2 60509  97.3799 215.1351 0004019  88.6887 271.4821 15.42898196 96499
TRANSPORTER-11 OBJECT AU
1 60510U 24149AU  26129.77759544  .00010753  00000+0  27900-3 0  9996
2 60510  97.3723 213.2253 0004884  78.7485 281.4309 15.39160447 96402
FLOCK 4BE-2             
1 60511U 24149AV  26129.79103335  .00034201  00000+0  63447-3 0  9990
2 60511  97.3816 216.1178 0003805  88.4260 271.7426 15.48879506 96556
FLOCK 4BE-13            
1 60512U 24149AW  26129.78763214  .00010397  00000+0  25520-3 0  9998
2 60512  97.3713 213.8327 0004945  62.7608 297.4142 15.40865058 96458
FLOCK 4BE-27            
1 60513U 24149AX  26129.77549153  .00006632  00000+0  20535-3 0  9990
2 60513  97.3819 211.6292 0005445  87.1366 273.0500 15.33785339 96252
FLOCK 4BE-9             
1 60514U 24149AY  26129.75805647  .00011826  00000+0  30174-3 0  9993
2 60514  97.3782 213.6936 0004133  91.1307 269.0413 15.39653739 96401
FLOCK 4BE-6             
1 60516U 24149BA  26129.75779350  .00011016  00000+0  29163-3 0  9993
2 60516  97.3785 213.1207 0004867  87.1127 273.0675 15.38536023 96366
FLOCK 4BE-14            
1 60517U 24149BB  26129.77492298  .00011361  00000+0  28831-3 0  9993
2 60517  97.3689 213.2444 0005708  84.5283 275.6614 15.39821894 96414
FLOCK 4BE-1             
1 60518U 24149BC  26129.95948454  .00011879  00000+0  28677-3 0  9996
2 60518  97.3774 214.5739 0005245  84.2305 275.9540 15.41333983 96487
FLOCK 4BE-28            
1 60519U 24149BD  26129.77078634  .00014250  00000+0  31877-3 0  9993
2 60519  97.3741 214.9906 0005342  79.4180 280.7670 15.43577931 96514
IPERDRONE.0             
1 60520U 24149BE  26129.72388052  .00049559  00000+0  57443-3 0  9995
2 60520  97.3770 221.2016 0001925  52.2011 307.9421 15.61667703 96902
TRANSPORTER-11 OBJECT BF
1 60521U 24149BF  26129.81070284  .00096529  00000+0  73408-3 0  9999
2 60521  97.3777 223.2161 0000642   0.5134 359.6129 15.71997364 97034
CONNECTA IOT-2          
1 60522U 24149BG  26129.76454323  .00003748  00000+0  15919-3 0  9998
2 60522  97.3838 208.5021 0008184  99.5916 260.6246 15.23646056 96046
PTD-R (TYVAK-0127)      
1 60523U 24149BH  26129.80062183  .00139540  00000+0  53524-3 0  9997
2 60523  97.3758 227.1635 0001100 194.2373 165.8868 15.87044142 97312
CONNECTA IOT-4          
1 60524U 24149BJ  26129.77551925  .00014072  00000+0  34568-3 0  9990
2 60524  97.3790 213.7357 0006352  77.1408 283.0547 15.40754861 96415
ORESAT0.5               
1 60525U 24149BK  26129.95354591  .00013752  00000+0  30668-3 0  9992
2 60525  97.3716 215.4139 0006329  67.2341 292.9575 15.43671835 96570
DEIMOS                  
1 60526U 24149BL  26129.77093915  .00014189  00000+0  32488-3 0  9990
2 60526  97.3770 215.3864 0006516  73.2110 286.9852 15.42876914 96524
CUAVA-2                 
1 60527U 24149BM  26129.96376529  .00008829  00000+0  26010-3 0  9995
2 60527  97.3721 211.4455 0007984  75.8914 284.3216 15.35243528 96307
ERNST                   
1 60528U 24149BN  26129.80007410  .00010219  00000+0  27351-3 0  9994
2 60528  97.3800 213.2640 0007400  80.0251 280.1829 15.38204187 96379
TORO                    
1 60530U 24149BQ  26129.92271131  .00000843  00000+0  79679-4 0  9996
2 60530  97.6792 205.3075 0001625  93.9002 266.2405 14.96281889 94234
HYPSO-2                 
1 60531U 24149BR  26129.94360154  .00001719  00000+0  14823-3 0  9995
2 60531  97.6811 206.7647 0001975 116.0574 244.0852 14.98599265 94328
